{
    "type": "FeatureCollection",
    "name": "ajb",
    "crs": {
        "type": "name",
        "properties": {
            "name": "urn:ogc:def:crs:OGC:1.3:CRS84"
        }
    },
    "features": [
        {
            "type": "Feature",
            "properties": {
                "id": 3.0,
                "descricao": "Águas Jurisdicionais Brasileiras, contendo o Mar Territorial, a Zona Econômica Exclusiva e a Plataforma Continental."
            },
            "geometry": {
                "type": "MultiPolygon",
                "coordinates": [
                    [
                        [
                            [
                                -53.416744037999898,
                                -33.748301609999899
                            ],
                            [
                                -53.5323500269999,
                                -33.688804489999903
                            ],
                            [
                                -53.518252648,
                                -33.153352325
                            ],
                            [
                                -53.075576528999903,
                                -32.740880247999897
                            ],
                            [
                                -57.649742824,
                                -30.189320897
                            ],
                            [
                                -57.282178511,
                                -29.817288264
                            ],
                            [
                                -56.271132190190357,
                                -28.758528595612319
                            ],
                            [
                                -55.202682697999897,
                                -27.8578591959999
                            ],
                            [
                                -53.671569151,
                                -26.9430127689999
                            ],
                            [
                                -53.759918722,
                                -26.640311697
                            ],
                            [
                                -53.6373687,
                                -26.249682816
                            ],
                            [
                                -53.836037738,
                                -25.971887118
                            ],
                            [
                                -53.890252275,
                                -25.623455002
                            ],
                            [
                                -54.145448074148874,
                                -25.602855517746146
                            ],
                            [
                                -54.431738391,
                                -25.6971061039999
                            ],
                            [
                                -54.593518055999901,
                                -25.592246234999902
                            ],
                            [
                                -54.619857506999899,
                                -25.451986661
                            ],
                            [
                                -54.498840838636973,
                                -25.199739148204436
                            ],
                            [
                                -54.481970329779479,
                                -25.083421429239753
                            ],
                            [
                                -54.362100924739543,
                                -24.11292320917569
                            ],
                            [
                                -54.44013953,
                                -23.904276082
                            ],
                            [
                                -54.669472109,
                                -23.812504841
                            ],
                            [
                                -54.941141089,
                                -23.968514899999899
                            ],
                            [
                                -55.413861316,
                                -23.965298007999898
                            ],
                            [
                                -55.562115154,
                                -23.476212659999899
                            ],
                            [
                                -55.686879830810518,
                                -22.766834186653156
                            ],
                            [
                                -55.843126539,
                                -22.287109386999902
                            ],
                            [
                                -56.393655775,
                                -22.074438569999899
                            ],
                            [
                                -57.137743592553122,
                                -22.235857118402187
                            ],
                            [
                                -57.995072153,
                                -22.088708693999902
                            ],
                            [
                                -57.933846204928102,
                                -21.0357083070896
                            ],
                            [
                                -58.274422376803102,
                                -20.1718963454705
                            ],
                            [
                                -58.192024915865602,
                                -19.696806843883
                            ],
                            [
                                -57.589150160006199,
                                -18.276208156540399
                            ],
                            [
                                -58.024483411959302,
                                -17.5352736832128
                            ],
                            [
                                -58.271675794771802,
                                -17.370204792484
                            ],
                            [
                                -58.488655775240602,
                                -16.8951351694562
                            ],
                            [
                                -58.458443372896802,
                                -16.587405849328
                            ],
                            [
                                -58.450203626803102,
                                -16.347719492876401
                            ],
                            [
                                -60.191536634615602,
                                -16.2870926540004
                            ],
                            [
                                -60.276680677584302,
                                -15.5210794431955
                            ],
                            [
                                -60.631929684281197,
                                -15.088827595266601
                            ],
                            [
                                -60.530306149125003,
                                -14.3343767094643
                            ],
                            [
                                -60.973564553831103,
                                -13.777516730176847
                            ],
                            [
                                -61.650911617875003,
                                -13.758857085073
                            ],
                            [
                                -62.024446774125003,
                                -13.673472910766099
                            ],
                            [
                                -62.332063961625003,
                                -13.3957614030892
                            ],
                            [
                                -63.167024899125003,
                                -12.9464752180336
                            ],
                            [
                                -63.782259274125003,
                                -12.753674088454201
                            ],
                            [
                                -64.155794430374996,
                                -12.7751037313497
                            ],
                            [
                                -64.639192867874996,
                                -12.517828898131
                            ],
                            [
                                -65.012728024124996,
                                -12.195874891356899
                            ],
                            [
                                -65.342317867874996,
                                -11.722970272881501
                            ],
                            [
                                -65.540071774124996,
                                -11.055234755259001
                            ],
                            [
                                -65.485140133499996,
                                -10.050801657493301
                            ],
                            [
                                -65.819222486656003,
                                -9.94395948876258
                            ],
                            [
                                -66.6193110180985,
                                -10.032141878601401
                            ],
                            [
                                -66.997920593594401,
                                -10.399968297243101
                            ],
                            [
                                -67.954333555776202,
                                -10.8202907402432
                            ],
                            [
                                -68.605257321,
                                -11.1953730020611
                            ],
                            [
                                -69.462413479570301,
                                -11.046083174993299
                            ],
                            [
                                -69.978622841500297,
                                -11.0457076098672
                            ],
                            [
                                -70.538851071,
                                -11.1522607261528
                            ],
                            [
                                -70.701831032787496,
                                -10.378909241221599
                            ],
                            [
                                -70.644918006119497,
                                -9.540888764394509
                            ],
                            [
                                -71.064582892246705,
                                -9.87130278029576
                            ],
                            [
                                -72.393092063076196,
                                -10.1969135893819
                            ],
                            [
                                -73.553753803400795,
                                -9.214975820379539
                            ],
                            [
                                -73.917877222079895,
                                -7.53710531563296
                            ],
                            [
                                -73.667118283673503,
                                -6.16357953827633
                            ],
                            [
                                -72.716110176436203,
                                -5.05148209868407
                            ],
                            [
                                -69.8143156674886,
                                -3.55101033153292
                            ],
                            [
                                -69.439628736355303,
                                -1.33044016566869
                            ],
                            [
                                -69.702260805684801,
                                -0.38376673681458
                            ],
                            [
                                -70.104696584397701,
                                -0.039890365642359
                            ],
                            [
                                -70.023767407623595,
                                0.611646237520934
                            ],
                            [
                                -69.7890412051634,
                                1.65866784713848
                            ],
                            [
                                -67.474106812476606,
                                2.18222415215077
                            ],
                            [
                                -66.873491487822605,
                                1.167851968005
                            ],
                            [
                                -64.725872298545198,
                                0.994827810746341
                            ],
                            [
                                -64.147563493252605,
                                3.00516935592175
                            ],
                            [
                                -64.692587051555606,
                                4.14117402348246
                            ],
                            [
                                -62.600187209177697,
                                3.87338792910124
                            ],
                            [
                                -60.436979968661099,
                                5.00260031566988
                            ],
                            [
                                -59.532037131706304,
                                3.98812691195525
                            ],
                            [
                                -59.783168278571701,
                                2.49444434271014
                            ],
                            [
                                -58.804646815384999,
                                1.08846549982432
                            ],
                            [
                                -54.950846895415197,
                                2.32680226234729
                            ],
                            [
                                -52.826596123695502,
                                2.194515275544
                            ],
                            [
                                -52.3678291934824,
                                3.139164046273943
                            ],
                            [
                                -51.753567814860602,
                                4.4298009857454
                            ],
                            [
                                -51.637634878,
                                4.50881707000002
                            ],
                            [
                                -51.637091326527361,
                                4.508456203779864
                            ],
                            [
                                -47.87641951,
                                8.75763679
                            ],
                            [
                                -47.77040357,
                                8.74275842
                            ],
                            [
                                -47.19594403,
                                8.50878998
                            ],
                            [
                                -46.59330817,
                                7.85430131
                            ],
                            [
                                -46.1008529,
                                7.13631299
                            ],
                            [
                                -45.72917414,
                                6.38664173
                            ],
                            [
                                -45.40777661,
                                5.45272427
                            ],
                            [
                                -44.6698939,
                                4.76471533
                            ],
                            [
                                -44.57328889,
                                4.60723889
                            ],
                            [
                                -43.74157222,
                                4.34685
                            ],
                            [
                                -42.86263767,
                                3.78965215
                            ],
                            [
                                -41.66964722,
                                2.75708889
                            ],
                            [
                                -40.91843333,
                                2.25565278
                            ],
                            [
                                -40.49428727,
                                2.73911475
                            ],
                            [
                                -39.22990938,
                                2.4859965
                            ],
                            [
                                -38.95972637,
                                1.52093737
                            ],
                            [
                                -37.65598611,
                                0.73023889
                            ],
                            [
                                -36.80043611,
                                0.12366944
                            ],
                            [
                                -36.54180278,
                                -0.63666944
                            ],
                            [
                                -35.54536728,
                                -0.66286876
                            ],
                            [
                                -35.14163333,
                                -0.13148056
                            ],
                            [
                                -33.9215652643,
                                -0.505060050193226
                            ],
                            [
                                -33.192630472099999,
                                -0.556195939592501
                            ],
                            [
                                -32.4023522942,
                                -0.454697938293892
                            ],
                            [
                                -32.3865185943,
                                -0.446433377193979
                            ],
                            [
                                -32.5011492848,
                                -0.150045719297966
                            ],
                            [
                                -32.639812669199998,
                                0.435700399894148
                            ],
                            [
                                -32.672198982099999,
                                1.036967568886087
                            ],
                            [
                                -32.5972350264,
                                1.634370677078112
                            ],
                            [
                                -32.404546262499998,
                                2.239583428670102
                            ],
                            [
                                -32.120288357600003,
                                2.769522835863153
                            ],
                            [
                                -31.7345352711,
                                3.251740976299705
                            ],
                            [
                                -31.280454908199999,
                                3.644615889799669
                            ],
                            [
                                -30.823487779600001,
                                3.920143511299651
                            ],
                            [
                                -30.391981712700005,
                                4.098394967999639
                            ],
                            [
                                -29.939801727699997,
                                4.214257646799629
                            ],
                            [
                                -29.475873483099999,
                                4.265442575799637
                            ],
                            [
                                -29.009361716200001,
                                4.250971044899623
                            ],
                            [
                                -28.549473860199999,
                                4.171182852899629
                            ],
                            [
                                -28.105297191,
                                4.027559831699638
                            ],
                            [
                                -27.685590034699995,
                                3.822947077199673
                            ],
                            [
                                -27.259403794700003,
                                3.530196437799684
                            ],
                            [
                                -26.8501732139,
                                3.137338792499717
                            ],
                            [
                                -26.521969448300002,
                                2.694732892264153
                            ],
                            [
                                -26.2643131494,
                                2.188433454570782
                            ],
                            [
                                -26.048373499699998,
                                1.381925324581477
                            ],
                            [
                                -26.018213849399999,
                                0.813954706189076
                            ],
                            [
                                -26.080365721700002,
                                0.265421328596444
                            ],
                            [
                                -26.236969123900003,
                                -0.28107282179622
                            ],
                            [
                                -26.449680401599998,
                                -0.735108669690113
                            ],
                            [
                                -26.727381854800004,
                                -1.152076752884538
                            ],
                            [
                                -27.063890846699998,
                                -1.522609090379601
                            ],
                            [
                                -27.451579804800001,
                                -1.838522200275389
                            ],
                            [
                                -27.881859223100001,
                                -2.092642144072052
                            ],
                            [
                                -28.345135943199999,
                                -2.279159577069568
                            ],
                            [
                                -28.8309856421,
                                -2.393858153568087
                            ],
                            [
                                -29.328448205600001,
                                -2.434143668267562
                            ],
                            [
                                -29.329666687900001,
                                -2.451156503067333
                            ],
                            [
                                -29.254114724400001,
                                -2.637190489764897
                            ],
                            [
                                -29.104751584,
                                -3.168449853899717
                            ],
                            [
                                -29.0504510994,
                                -3.549630801399677
                            ],
                            [
                                -29.0369316343,
                                -3.917656997099673
                            ],
                            [
                                -29.063680884900002,
                                -4.284949739399643
                            ],
                            [
                                -29.13436058,
                                -4.663351100399598
                            ],
                            [
                                -29.242044342899998,
                                -5.015419262699552
                            ],
                            [
                                -29.387707185900002,
                                -5.353487635399543
                            ],
                            [
                                -29.754342589499998,
                                -5.932216724599498
                            ],
                            [
                                -29.974464384100003,
                                -6.184284722999482
                            ],
                            [
                                -30.813913324900003,
                                -6.816257752299427
                            ],
                            [
                                -31.099966992900001,
                                -6.955685232999432
                            ],
                            [
                                -31.429818677800004,
                                -7.07925658749943
                            ],
                            [
                                -31.425523478299997,
                                -7.849289637599355
                            ],
                            [
                                -31.475506157299996,
                                -8.365869559599325
                            ],
                            [
                                -31.587188097399999,
                                -8.906549607499313
                            ],
                            [
                                -31.721205677500002,
                                -9.355770640899282
                            ],
                            [
                                -32.069791078199998,
                                -10.316263207999231
                            ],
                            [
                                -32.204332075899998,
                                -10.605049541299204
                            ],
                            [
                                -32.675378071799997,
                                -11.319859412399179
                            ],
                            [
                                -33.249547011132215,
                                -12.138413606446234
                            ],
                            [
                                -33.940618341,
                                -12.851127048899125
                            ],
                            [
                                -34.267559152899999,
                                -13.145053785399128
                            ],
                            [
                                -34.471042198500001,
                                -13.297179720999116
                            ],
                            [
                                -34.619917373299998,
                                -13.598449326099109
                            ],
                            [
                                -34.87016956,
                                -14.0177454
                            ],
                            [
                                -35.33429444,
                                -14.9026
                            ],
                            [
                                -35.34276461,
                                -15.89810603
                            ],
                            [
                                -34.933046210804143,
                                -16.055923347454968
                            ],
                            [
                                -34.563670858977389,
                                -16.411091954980691
                            ],
                            [
                                -34.542360742525844,
                                -16.986465099172364
                            ],
                            [
                                -34.704209,
                                -17.25921675
                            ],
                            [
                                -34.75918889,
                                -18.24618611
                            ],
                            [
                                -34.29207222,
                                -19.08281389
                            ],
                            [
                                -33.49277807,
                                -19.32495064
                            ],
                            [
                                -32.50275372,
                                -18.99046498
                            ],
                            [
                                -32.2490154312,
                                -18.589572202399076
                            ],
                            [
                                -31.8179734733,
                                -18.106209827799091
                            ],
                            [
                                -31.301592376300004,
                                -17.707828750499068
                            ],
                            [
                                -30.7346642535,
                                -17.413699445499081
                            ],
                            [
                                -30.173324089600005,
                                -17.234158984899086
                            ],
                            [
                                -29.57179267,
                                -17.14548956869907
                            ],
                            [
                                -28.9286238607,
                                -17.122299979099076
                            ],
                            [
                                -28.304243895500001,
                                -17.162011456699091
                            ],
                            [
                                -27.588046877299998,
                                -17.344296029199075
                            ],
                            [
                                -27.069161752199999,
                                -17.581461555499079
                            ],
                            [
                                -26.747970642700004,
                                -17.782937955099069
                            ],
                            [
                                -26.451002692800003,
                                -18.016487686299072
                            ],
                            [
                                -26.169644187100001,
                                -18.291449311799074
                            ],
                            [
                                -25.932101425700001,
                                -18.581218617299083
                            ],
                            [
                                -25.728506886,
                                -18.893844796699092
                            ],
                            [
                                -25.561388012,
                                -19.225654513199078
                            ],
                            [
                                -25.43296831,
                                -19.572772328799111
                            ],
                            [
                                -25.345007083900001,
                                -19.931092849499095
                            ],
                            [
                                -25.298818127200001,
                                -20.296352036999114
                            ],
                            [
                                -25.2937231895,
                                -20.664188808099134
                            ],
                            [
                                -25.330620841199995,
                                -21.030375693899131
                            ],
                            [
                                -25.410305044800001,
                                -21.390515406999139
                            ],
                            [
                                -25.601179,
                                -21.894523827599155
                            ],
                            [
                                -25.969216876299996,
                                -22.487065252699164
                            ],
                            [
                                -26.462465950399999,
                                -22.996183054899188
                            ],
                            [
                                -27.060648605800001,
                                -23.399555010199204
                            ],
                            [
                                -27.738142764099997,
                                -23.679291180199197
                            ],
                            [
                                -28.447052428300005,
                                -23.821055080799212
                            ],
                            [
                                -29.535497769200003,
                                -23.866284517099217
                            ],
                            [
                                -30.269283349800002,
                                -23.754031642099218
                            ],
                            [
                                -30.9606188819,
                                -23.503646098399201
                            ],
                            [
                                -31.537333974599999,
                                -23.158687346399194
                            ],
                            [
                                -32.018518686500002,
                                -22.730687583499186
                            ],
                            [
                                -32.40601516,
                                -22.22842973
                            ],
                            [
                                -33.46770846,
                                -22.1049559
                            ],
                            [
                                -33.57442145,
                                -22.90287375
                            ],
                            [
                                -33.75577387,
                                -22.91111042
                            ],
                            [
                                -34.25621131,
                                -23.79316915
                            ],
                            [
                                -35.12781479,
                                -24.21593212
                            ],
                            [
                                -35.36933713,
                                -24.71743584
                            ],
                            [
                                -35.71860768,
                                -25.27622885
                            ],
                            [
                                -35.98926998,
                                -25.62681416
                            ],
                            [
                                -36.92685787,
                                -26.94670336
                            ],
                            [
                                -36.70435903,
                                -27.44206516
                            ],
                            [
                                -35.49989948,
                                -27.58323727
                            ],
                            [
                                -35.4150529,
                                -27.67841959
                            ],
                            [
                                -34.30007402,
                                -27.5915825
                            ],
                            [
                                -34.04998416,
                                -27.44212667
                            ],
                            [
                                -32.734552530219929,
                                -27.012874889623539
                            ],
                            [
                                -31.01467151,
                                -26.97416841
                            ],
                            [
                                -29.807963204207965,
                                -27.098115355429712
                            ],
                            [
                                -28.699837148727706,
                                -27.510110940159553
                            ],
                            [
                                -27.87019093,
                                -28.11269012
                            ],
                            [
                                -27.76994768,
                                -28.24087375
                            ],
                            [
                                -27.26225298,
                                -30.02984643
                            ],
                            [
                                -27.15131924,
                                -30.66042658
                            ],
                            [
                                -26.909787366798056,
                                -31.658480276060011
                            ],
                            [
                                -26.923994111099084,
                                -32.979707496055703
                            ],
                            [
                                -27.506470627441274,
                                -34.840790999490501
                            ],
                            [
                                -28.316255052599924,
                                -35.849469844863556
                            ],
                            [
                                -29.935823902917232,
                                -36.304085662496483
                            ],
                            [
                                -31.470152287428359,
                                -36.062571009378992
                            ],
                            [
                                -32.28242452,
                                -35.52205842
                            ],
                            [
                                -33.302822302261092,
                                -34.954444953898729
                            ],
                            [
                                -33.70421689,
                                -34.17410188
                            ],
                            [
                                -34.61612639,
                                -33.53399471
                            ],
                            [
                                -36.382134129509119,
                                -33.775285176913329
                            ],
                            [
                                -38.832797521436575,
                                -33.437874999763913
                            ],
                            [
                                -39.777546017455037,
                                -31.644273531758984
                            ],
                            [
                                -40.132714624980764,
                                -30.933936316707538
                            ],
                            [
                                -40.42801398,
                                -29.97903196
                            ],
                            [
                                -41.52086439,
                                -30.15048634
                            ],
                            [
                                -42.47333246,
                                -30.70065142
                            ],
                            [
                                -42.60479738,
                                -30.96095912
                            ],
                            [
                                -42.867512902928837,
                                -31.544826321651779
                            ],
                            [
                                -43.30592526,
                                -31.981766
                            ],
                            [
                                -43.563643373679227,
                                -32.883811972023786
                            ],
                            [
                                -44.075086168516265,
                                -33.79304360728964
                            ],
                            [
                                -44.913284082276974,
                                -34.773308964060632
                            ],
                            [
                                -46.376578745282956,
                                -36.122949672658386
                            ],
                            [
                                -47.8876532,
                                -37.24515428
                            ],
                            [
                                -53.369368272020388,
                                -33.744362681152332
                            ],
                            [
                                -53.416744037999898,
                                -33.748301609999899
                            ]
                        ]
                    ]
                ]
            }
        }
    ]
}