{
    "type": "FeatureCollection",
    "name": "ajb_simplificado",
    "crs": {
        "type": "name",
        "properties": {
            "name": "urn:ogc:def:crs:OGC:1.3:CRS84"
        }
    },
    "features": [
        {
            "type": "Feature",
            "properties": {
                "id": 3.0,
                "descricao": "Águas Jurisdicionais Brasileiras, contendo o Mar Territorial, a Zona Econômica Exclusiva e a Plataforma Continental."
            },
            "geometry": {
                "type": "MultiPolygon",
                "coordinates": [
                    [
                        [
                            [
                                -53.416744037999898,
                                -33.748301609999899
                            ],
                            [
                                -53.5323500269999,
                                -33.688804489999903
                            ],
                            [
                                -53.518252648,
                                -33.153352325
                            ],
                            [
                                -57.649742824,
                                -30.189320897
                            ],
                            [
                                -56.189776381028999,
                                -28.338430727023486
                            ],
                            [
                                -53.671569151,
                                -26.9430127689999
                            ],
                            [
                                -54.680420789234475,
                                -25.553131912692841
                            ],
                            [
                                -54.941141089,
                                -23.968514899999899
                            ],
                            [
                                -55.413861316,
                                -23.965298007999898
                            ],
                            [
                                -55.843126539,
                                -22.287109386999902
                            ],
                            [
                                -57.137743592553122,
                                -22.235857118402187
                            ],
                            [
                                -57.995072153,
                                -22.088708693999902
                            ],
                            [
                                -58.274422376803102,
                                -20.1718963454705
                            ],
                            [
                                -58.800376636532903,
                                -16.801777423259008
                            ],
                            [
                                -60.191536634615602,
                                -16.2870926540004
                            ],
                            [
                                -60.530306149125003,
                                -14.3343767094643
                            ],
                            [
                                -64.155794430374996,
                                -12.7751037313497
                            ],
                            [
                                -65.349685759307249,
                                -11.6447292419855
                            ],
                            [
                                -65.485140133499996,
                                -10.050801657493301
                            ],
                            [
                                -65.819222486656003,
                                -9.94395948876258
                            ],
                            [
                                -66.6193110180985,
                                -10.032141878601401
                            ],
                            [
                                -66.997920593594401,
                                -10.399968297243101
                            ],
                            [
                                -67.954333555776202,
                                -10.8202907402432
                            ],
                            [
                                -68.605257321,
                                -11.1953730020611
                            ],
                            [
                                -70.538851071,
                                -11.1522607261528
                            ],
                            [
                                -70.701831032787496,
                                -10.378909241221599
                            ],
                            [
                                -72.393092063076196,
                                -10.1969135893819
                            ],
                            [
                                -73.553753803400795,
                                -9.214975820379539
                            ],
                            [
                                -73.917877222079895,
                                -7.53710531563296
                            ],
                            [
                                -73.667118283673503,
                                -6.16357953827633
                            ],
                            [
                                -72.716110176436203,
                                -5.05148209868407
                            ],
                            [
                                -69.8143156674886,
                                -3.55101033153292
                            ],
                            [
                                -69.702260805684801,
                                -0.38376673681458
                            ],
                            [
                                -70.104696584397701,
                                -0.039890365642359
                            ],
                            [
                                -70.023767407623595,
                                0.611646237520934
                            ],
                            [
                                -69.7890412051634,
                                1.65866784713848
                            ],
                            [
                                -67.474106812476606,
                                2.18222415215077
                            ],
                            [
                                -66.873491487822605,
                                1.167851968005
                            ],
                            [
                                -64.725872298545198,
                                0.994827810746341
                            ],
                            [
                                -64.147563493252605,
                                3.00516935592175
                            ],
                            [
                                -64.692587051555606,
                                4.14117402348246
                            ],
                            [
                                -62.600187209177697,
                                3.87338792910124
                            ],
                            [
                                -60.436979968661099,
                                5.00260031566988
                            ],
                            [
                                -59.532037131706304,
                                3.98812691195525
                            ],
                            [
                                -59.783168278571701,
                                2.49444434271014
                            ],
                            [
                                -58.804646815384999,
                                1.08846549982432
                            ],
                            [
                                -54.950846895415197,
                                2.32680226234729
                            ],
                            [
                                -52.826596123695502,
                                2.194515275544
                            ],
                            [
                                -51.753567814860602,
                                4.4298009857454
                            ],
                            [
                                -51.637634878,
                                4.50881707000002
                            ],
                            [
                                -51.637091326527361,
                                4.508456203779864
                            ],
                            [
                                -47.84531192759173,
                                8.788675699918659
                            ],
                            [
                                -39.226923685600411,
                                2.603858360617586
                            ],
                            [
                                -32.4023522942,
                                -0.454697938293892
                            ],
                            [
                                -32.3865185943,
                                -0.446433377193979
                            ],
                            [
                                -32.805475261535321,
                                0.756981601483822
                            ],
                            [
                                -32.5972350264,
                                1.634370677078112
                            ],
                            [
                                -32.407686421106511,
                                2.717512315025818
                            ],
                            [
                                -30.844944547993322,
                                4.251840699536945
                            ],
                            [
                                -28.34455755101223,
                                4.33708116534312
                            ],
                            [
                                -26.980710098113448,
                                3.569916973087555
                            ],
                            [
                                -25.929411019837303,
                                2.319723474597007
                            ],
                            [
                                -26.018213849399999,
                                0.813954706189076
                            ],
                            [
                                -26.412440326072311,
                                -1.899679582808599
                            ],
                            [
                                -28.799173368645175,
                                -2.766290985171365
                            ],
                            [
                                -29.267995930579129,
                                -5.863361242795677
                            ],
                            [
                                -30.75970408218717,
                                -6.786799622362561
                            ],
                            [
                                -31.429818677800004,
                                -7.07925658749943
                            ],
                            [
                                -31.668935717453003,
                                -10.295865464716716
                            ],
                            [
                                -33.998841782821756,
                                -14.330580846208942
                            ],
                            [
                                -34.704209,
                                -17.25921675
                            ],
                            [
                                -34.318493529594861,
                                -18.365296227701165
                            ],
                            [
                                -33.49277807,
                                -19.32495064
                            ],
                            [
                                -31.253499436837796,
                                -16.872811144764171
                            ],
                            [
                                -27.67339987297845,
                                -16.56026277014152
                            ],
                            [
                                -25.645276133816729,
                                -18.365296227701165
                            ],
                            [
                                -25.077006361775567,
                                -21.03616415629461
                            ],
                            [
                                -26.270372883062002,
                                -23.252416267255128
                            ],
                            [
                                -29.054894766063676,
                                -24.275301856929211
                            ],
                            [
                                -31.537333974599999,
                                -23.158687346399194
                            ],
                            [
                                -34.25621131,
                                -23.79316915
                            ],
                            [
                                -36.92685787,
                                -26.94670336
                            ],
                            [
                                -36.70435903,
                                -27.44206516
                            ],
                            [
                                -31.100665945411819,
                                -26.605207922297964
                            ],
                            [
                                -28.1456631307978,
                                -27.457612580359704
                            ],
                            [
                                -26.724988700694901,
                                -29.787518645728454
                            ],
                            [
                                -26.554507769082555,
                                -32.969829369158937
                            ],
                            [
                                -27.0659505639196,
                                -35.072427525711227
                            ],
                            [
                                -28.543451971226609,
                                -36.208967069793545
                            ],
                            [
                                -32.191144560705666,
                                -36.307637348571781
                            ],
                            [
                                -38.832797521436575,
                                -33.437874999763913
                            ],
                            [
                                -40.42801398,
                                -29.97903196
                            ],
                            [
                                -41.52086439,
                                -30.15048634
                            ],
                            [
                                -43.897501864753522,
                                -34.290279657825664
                            ],
                            [
                                -47.8876532,
                                -37.24515428
                            ],
                            [
                                -53.416744037999898,
                                -33.748301609999899
                            ]
                        ]
                    ]
                ]
            }
        }
    ]
}