{
    "type": "FeatureCollection",
    "name": "AJB_maritimo",
    "crs": {
        "type": "name",
        "properties": {
            "name": "urn:ogc:def:crs:OGC:1.3:CRS84"
        }
    },
    "features": [
        {
            "type": "Feature",
            "properties": {
                "id": 3.0,
                "descricao": "Águas Jurisdicionais Brasileiras, contendo o Mar Territorial, a Zona Econômica Exclusiva e a Plataforma Continental."
            },
            "geometry": {
                "type": "MultiPolygon",
                "coordinates": [
                    [
                        [
                            [
                                -53.416744037999898,
                                -33.748301609999899
                            ],
                            [
                                -53.5323500269999,
                                -33.688804489999903
                            ],
                            [
                                -53.713665268756962,
                                -33.142138999181199
                            ],
                            [
                                -53.098212976634137,
                                -32.361565360391275
                            ],
                            [
                                -51.540818456933039,
                                -30.605274673113939
                            ],
                            [
                                -51.25936161602327,
                                -29.854723097354409
                            ],
                            [
                                -50.279891809657016,
                                -27.783200748258068
                            ],
                            [
                                -48.718744532077196,
                                -25.081215075523723
                            ],
                            [
                                -45.776582355099805,
                                -22.919626537336246
                            ],
                            [
                                -41.933758287210949,
                                -21.958920520364032
                            ],
                            [
                                -40.072390379327288,
                                -18.146118515505567
                            ],
                            [
                                -39.802191812053863,
                                -16.074596166409236
                            ],
                            [
                                -39.62205943387157,
                                -14.063117943373665
                            ],
                            [
                                -38.942810257809114,
                                -12.494465150036259
                            ],
                            [
                                -38.150978345382867,
                                -11.271066081548174
                            ],
                            [
                                -36.529786941742231,
                                -8.809256913056883
                            ],
                            [
                                -35.56908092477002,
                                -6.467535996687117
                            ],
                            [
                                -37.730669462957493,
                                -5.506829979714905
                            ],
                            [
                                -40.792919892056418,
                                -4.245903332438877
                            ],
                            [
                                -44.005280636307276,
                                -3.900649607589489
                            ],
                            [
                                -46.677244246011242,
                                -2.729789149404604
                            ],
                            [
                                -49.769516738140553,
                                -2.699767086374223
                            ],
                            [
                                -51.315652984205201,
                                -1.844138290008346
                            ],
                            [
                                -51.916094244812811,
                                -0.358046170004456
                            ],
                            [
                                -51.000421322386202,
                                0.902880477271572
                            ],
                            [
                                -51.240597826629227,
                                2.118774030002028
                            ],
                            [
                                -51.753567814860602,
                                4.4298009857454
                            ],
                            [
                                -51.637634878,
                                4.50881707000002
                            ],
                            [
                                -51.637091326527361,
                                4.508456203779864
                            ],
                            [
                                -47.84531192759173,
                                8.788675699918659
                            ],
                            [
                                -39.226923685600411,
                                2.603858360617586
                            ],
                            [
                                -32.4023522942,
                                -0.454697938293892
                            ],
                            [
                                -32.3865185943,
                                -0.446433377193979
                            ],
                            [
                                -32.805475261535321,
                                0.756981601483822
                            ],
                            [
                                -32.5972350264,
                                1.634370677078112
                            ],
                            [
                                -32.407686421106511,
                                2.717512315025818
                            ],
                            [
                                -30.844944547993322,
                                4.251840699536945
                            ],
                            [
                                -28.34455755101223,
                                4.33708116534312
                            ],
                            [
                                -26.980710098113448,
                                3.569916973087555
                            ],
                            [
                                -25.929411019837303,
                                2.319723474597007
                            ],
                            [
                                -26.018213849399999,
                                0.813954706189076
                            ],
                            [
                                -26.412440326072311,
                                -1.899679582808599
                            ],
                            [
                                -28.799173368645175,
                                -2.766290985171365
                            ],
                            [
                                -29.267995930579129,
                                -5.863361242795677
                            ],
                            [
                                -30.75970408218717,
                                -6.786799622362561
                            ],
                            [
                                -31.429818677800004,
                                -7.07925658749943
                            ],
                            [
                                -31.668935717453003,
                                -10.295865464716716
                            ],
                            [
                                -33.998841782821756,
                                -14.330580846208942
                            ],
                            [
                                -34.704209,
                                -17.25921675
                            ],
                            [
                                -34.318493529594861,
                                -18.365296227701165
                            ],
                            [
                                -33.49277807,
                                -19.32495064
                            ],
                            [
                                -31.253499436837796,
                                -16.872811144764171
                            ],
                            [
                                -27.67339987297845,
                                -16.56026277014152
                            ],
                            [
                                -25.645276133816729,
                                -18.365296227701165
                            ],
                            [
                                -25.077006361775567,
                                -21.03616415629461
                            ],
                            [
                                -26.270372883062002,
                                -23.252416267255128
                            ],
                            [
                                -29.054894766063676,
                                -24.275301856929211
                            ],
                            [
                                -31.537333974599999,
                                -23.158687346399194
                            ],
                            [
                                -34.25621131,
                                -23.79316915
                            ],
                            [
                                -36.92685787,
                                -26.94670336
                            ],
                            [
                                -36.70435903,
                                -27.44206516
                            ],
                            [
                                -31.100665945411819,
                                -26.605207922297964
                            ],
                            [
                                -28.1456631307978,
                                -27.457612580359704
                            ],
                            [
                                -26.724988700694901,
                                -29.787518645728454
                            ],
                            [
                                -26.554507769082555,
                                -32.969829369158937
                            ],
                            [
                                -27.0659505639196,
                                -35.072427525711227
                            ],
                            [
                                -28.543451971226609,
                                -36.208967069793545
                            ],
                            [
                                -32.191144560705666,
                                -36.307637348571781
                            ],
                            [
                                -38.832797521436575,
                                -33.437874999763913
                            ],
                            [
                                -40.42801398,
                                -29.97903196
                            ],
                            [
                                -41.52086439,
                                -30.15048634
                            ],
                            [
                                -43.897501864753522,
                                -34.290279657825664
                            ],
                            [
                                -47.8876532,
                                -37.24515428
                            ],
                            [
                                -53.416744037999898,
                                -33.748301609999899
                            ]
                        ]
                    ]
                ]
            }
        }
    ]
}